LEMUR-2-VALHALLA        
1 58900U 24022B   26196.14348855  .00009181  00000+0  22826-3 0  9995
2 58900  97.4076  46.4839 0009214  24.3908 335.7773 15.40486977136571
LEMUR-2-CAEL            
1 58903U 24022E   26196.12913868  .00010508  00000+0  24954-3 0  9997
2 58903  97.4057  47.4555 0007125   9.8241 350.3144 15.41854430136643
LEMUR-2-JOHNNYTRUONG    
1 59146U 24043BA  26195.96173650  .00027955  00000+0  31450-3 0  9991
2 59146  97.5391 349.4319 0004101  94.5290 265.6437 15.62548407132370
LEMUR-2-TOMATOKECHUP    
1 60471U 24149D   26196.17962130  .00006176  00000+0  17522-3 0  9990
2 60471  97.3800 278.3072 0003289 122.7219 237.4342 15.36582532106464
LEMUR-2-STELLA          
1 60533U 24149BT  26196.13990325  .00005285  00000+0  30849-3 0  9999
2 60533  97.6739 278.7272 0001262 117.9259 242.2099 15.12370018104720
LEMUR-2-MARHISYAM       
1 60536U 24149BW  26196.06460422  .00005575  00000+0  33056-3 0  9999
2 60536  97.6883 279.1278 0002498  69.0130 291.1366 15.11775917104693
LEMUR-2-AHMED-ASRAR     
1 60576U 24149DN  26195.80675463  .00005930  00000+0  33684-3 0  9999
2 60576  97.7008 281.0702 0001134 205.8662 154.2512 15.13301229104748
LEMUR-2-LLOYD           
1 60577U 24149DP  26196.14862723  .00005016  00000+0  31480-3 0  9992
2 60577  97.6750 277.3011 0004803  72.7044 287.4710 15.09750750104611
LEMUR-2-SQUIRRELCOMM    
1 60578U 24149DQ  26196.13716545  .00002363  00000+0  16013-3 0  9999
2 60578  97.6712 276.9648 0004080 328.3749  31.7233 15.07446412104615
LEMUR-2-SIERRINI        
1 60579U 24149DR  26196.15967207  .00005945  00000+0  35465-3 0  9996
2 60579  97.6849 278.8848 0006477  91.0767 269.1205 15.11512778104683
LEMUR-2-WILSON          
1 62694U 25009CP  26196.13492510  .00000674  00000+0  66337-4 0  9997
2 62694  97.7021 274.1097 0002024 325.2513  34.8575 14.95276365 81531
LEMUR-2-STAR-FOX        
1 62696U 25009CR  26196.19343779  .00003389  00000+0  25750-3 0  9996
2 62696  97.6910 277.6011 0002231  42.2446 317.8950 15.02840720 81761
LEMUR-2-ARIANNA         
1 62699U 25009CU  26196.19190453  .00003648  00000+0  27680-3 0  9990
2 62699  97.6852 277.3518 0002560  48.8550 311.2895 15.02842721 81760
LEMUR-2-ALISIA          
1 62706U 25009DB  26196.16427264  .00004406  00000+0  33038-3 0  9996
2 62706  97.6973 278.1493 0004296 129.2590 230.9017 15.03175424104365
LEMUR-2-ROUNDTRIPPER    
1 62711U 25009DG  26196.16948394  .00004615  00000+0  33632-3 0  9996
2 62711  97.7253 278.8143 0004458  63.8753 296.2931 15.04231838 81835
LEMUR-2-MYNAMEISJEFF    
1 62712U 25009DH  26196.16797074  .00004562  00000+0  33262-3 0  9994
2 62712  97.7303 279.2107 0004066  97.4624 262.7064 15.04222993 81839
